SL-16 R/B               
1 19120U 88039B   16155.93815828  .00000160  00000-0  99222-4 0  9998
2 19120  71.0160  44.1293 0020324  43.9247 316.3489 14.19147547452450
COSMOS 1953             
1 19210U 88050A   16155.72894925  .00000475  00000-0  31550-4 0  9992
2 19210  82.5185  40.1822 0015305 108.6666 251.6224 15.04792188499782
SL-8 R/B                
1 19257U 88053B   16156.50712416  .00000147  00000-0  58028-4 0  9992
2 19257  74.0479 190.8402 0020342 178.8190 339.1055 14.37315623464506
COSMOS 1975             
1 19573U 88093A   16156.02992510  .00001191  00000-0  84645-4 0  9993
2 19573  82.5198 351.2180 0015417 141.6249 218.6077 15.03712312502974
SL-14 R/B               
1 19574U 88093B   16156.48456418  .00000126  00000-0  12473-4 0  9993
2 19574  82.5308 138.1799 0020127 282.9041 193.8804 14.83155544493469
SL-16 R/B               
1 19650U 88102B   16155.93380635  .00000189  00000-0  12056-3 0  9990
2 19650  70.9999  90.4462 0013029  31.4964 328.6936 14.15739856422186
INTERCOSMOS 24          
1 20261U 89080A   16156.22595165  .00000163  00000-0  48272-4 0  9997
2 20261  82.5974 254.7594 1203454 248.2816  98.6112 12.55768692218520
SL-14 R/B               
1 20262U 89080C   16156.52197602  .00000039  00000-0  40887-5 0  9992
2 20262  82.5929 297.9577 1237815  37.5937 330.5473 12.48813568214576
DELTA 1 R/B             
1 20323U 89089B   16156.10363417  .00000067  00000-0  26534-4 0  9995
2 20323  97.0643 156.7396 0071627 188.9179 171.0751 14.48123556400009
DELTA 2 R/B(1)          
1 20453U 90008B   16155.81999770  .00001867  00000-0  10957-3 0  9996
2 20453  35.6276 290.9947 0295454 264.5385  92.1562 14.81809878392022
COSMOS 2058             
1 20465U 90010A   16155.78533977  .00000590  00000-0  48527-4 0  9998
2 20465  82.4911 251.5834 0017050 126.0705 234.2100 14.97202936428713
SL-14 R/B               
1 20466U 90010B   16156.08304994  .00000126  00000-0  13020-4 0  9993
2 20466  82.5030   6.3670 0021602 137.2877 223.0021 14.81221666421527
SL-14 R/B               
1 20511U 90018B   16155.95909509  .00000122  00000-0  13134-4 0  9992
2 20511  82.5222 306.3126 0015965 273.6600 206.0055 14.79882585395027
HST                     
1 20580U 90037B   16155.94289103  .00000959  00000-0  48921-4 0  9999
2 20580  28.4707 346.1817 0002926  67.9369  50.0740 15.08380061233022
SL-16 R/B               
1 20625U 90046B   16156.55420428 -.00000293  00000-0 -12728-3 0  9992
2 20625  70.9991 221.6996 0016034 314.2179 143.4706 14.14598570344435
COSMOS 2084             
1 20663U 90055A   16155.93958989  .00000771  00000-0  85070-4 0  9993
2 20663  62.7940  50.2108 0123117  52.3805 308.8387 14.91218196403388
SL-6 R/B(2)             
1 20666U 90055D   16155.89204030  .00000507  00000-0  60493-4 0  9991
2 20666  62.7844 330.2373 0132780  72.0271 289.5243 14.91590544405277
SL-8 R/B                
1 20775U 90078B   16156.55943022  .00003669  00000-0  18237-3 0  9992
2 20775  82.9290 357.2082 0599537  63.7198 302.4309 14.28408858294815
SL-8 R/B                
1 21088U 91006B   16156.51730196  .00000075  00000-0  61187-4 0  9995
2 21088  82.9417 300.9738 0021299 299.0794 128.8628 13.77034581273629
OKEAN-3                 
1 21397U 91039A   16156.50096194  .00000548  00000-0  51060-4 0  9990
2 21397  82.5208 137.1006 0019584  62.6585 297.6625 14.92215925353453
COSMOS 2151             
1 21422U 91042A   16156.21696760  .00000398  00000-0  36957-4 0  9997
2 21422  82.5019 246.0662 0015827 114.4638 245.8234 14.91636685352157
SL-14 R/B               
1 21423U 91042B   16155.90579739  .00000135  00000-0  14906-4 0  9998
2 21423  82.4929 314.8965 0018830  52.7451 307.5476 14.79636452325603
ERS-1                   
1 21574U 91050A   16155.97080550  .00000084  00000-0  42022-4 0  9992
2 21574  98.4135 104.2135 0033309   7.3754 352.7917 14.37494250303257
ARIANE 40 R/B           
1 21610U 91050F   16156.17486404  .00000127  00000-0  53953-4 0  9997
2 21610  98.6569 203.2571 0003141  15.2681  52.2333 14.40737382305686
INTERCOSMOS 25          
1 21819U 91086A   16155.90228549  .00001493  00000-0  28502-3 0  9999
2 21819  82.5521 290.4232 1527277 171.5761 191.4468 12.04212965 66723
SL-14 R/B               
1 21820U 91086B   16155.61266687  .00000128  00000-0  23373-4 0  9990
2 21820  82.5597 341.7807 1577600 345.7366  10.3583 11.93165452 61634
SL-8 R/B                
1 21876U 92008B   16155.81312117  .00000032  00000-0  16916-4 0  9997
2 21876  82.9280  38.4203 0035175  12.7971  57.9165 13.75586798219131
SL-8 R/B                
1 21938U 92020B   16156.52968578  .00000064  00000-0  50693-4 0  9992
2 21938  82.9303 280.8276 0029697 163.4005 246.0120 13.75248635211389
SL-16 R/B               
1 22220U 92076B   16156.21871480  .00000125  00000-0  87094-4 0  9992
2 22220  70.9986 134.8393 0011298 136.1872 309.7408 14.16396521217255
SL-16 R/B               
1 22285U 92093B   16156.52584652  .00000171  00000-0  11287-3 0  9999
2 22285  71.0226 284.5099 0005271 320.3281  39.7455 14.14998307209112
COSMOS 2228             
1 22286U 92094A   16155.94914751  .00000386  00000-0  39776-4 0  9995
2 22286  82.5212  10.6571 0019283 299.2561  60.6728 14.87455731245194
SL-16 R/B               
1 22566U 93016B   16156.19777459  .00000205  00000-0  13079-3 0  9998
2 22566  71.0066 140.3340 0011042 337.4457  22.6179 14.14930115197800
COSMOS 2242             
1 22626U 93024A   16156.17026918  .00000381  00000-0  39320-4 0  9992
2 22626  82.5232  38.1331 0017770 298.0339  61.9080 14.87462106249959
SL-16 R/B               
1 22803U 93059B   16156.56096611  .00000044  00000-0  46040-4 0  9990
2 22803  70.9903 325.1638 0019232 243.8618 116.0527 14.16746084174793
ARIANE 40 R/B           
1 22830U 93061H   16156.54883345  .00000003  00000-0  18709-4 0  9995
2 22830  98.8857 157.1958 0010043 315.3177 152.8337 14.31409427184224
COSMOS 2278             
1 23087U 94023A   16155.94176891  .00000329  00000-0  19884-3 0  9998
2 23087  71.0542  69.5059 0007280  69.7893 290.4011 14.13715647140791
SL-16 R/B               
1 23088U 94023B   16156.54038803 -.00000241  00000-0 -10042-3 0  9998
2 23088  70.9994 354.6762 0005149 295.4525  64.6064 14.14639042142136
SL-16 R/B               
1 23343U 94074B   16156.10438571  .00000044  00000-0  14003-4 0  9997
2 23343  98.1940 182.4128 0006515 193.9813 231.2523 14.76658026161039
SL-16 R/B               
1 23405U 94077B   16156.47710944  .00000260  00000-0  15864-3 0  9991
2 23405  70.9835 289.5221 0003279 213.8504 146.2409 14.15182685112079
ERS-2                   
1 23560U 95021A   16156.14711935  .00002668  00000-0  13146-3 0  9993
2 23560  98.5138  93.2577 0004794 131.9220 228.2421 15.19024108117963
ARIANE 40+ R/B          
1 23561U 95021B   16156.03734284  .00000069  00000-0  38445-4 0  9997
2 23561  98.7694 142.9923 0005976 304.2839 101.5792 14.37742172106918
SL-16 R/B               
1 23705U 95058B   16155.91719093 -.00000281  00000-0 -12019-3 0  9990
2 23705  71.0205 102.6541 0011832 165.0195 195.1280 14.15083825 63377
SL-16 R/B               
1 24298U 96051B   16156.47241688  .00000040  00000-0  47995-4 0  9997
2 24298  70.8343 138.2439 0013572  14.8241 345.3274 14.12403886 18486
ORBVIEW 2 (SEASTAR)     
1 24883U 97037A   16156.39568692  .00000067  00000-0  39998-4 0  9993
2 24883  98.5203 264.5396 0003295 129.0863 231.0615 14.33319324997788
SL-16 R/B               
1 25400U 98043G   16155.99893008 -.00000009  00000-0  14010-4 0  9999
2 25400  98.4371 111.4330 0009203 329.0911  30.9726 14.25382476931199
SL-16 R/B               
1 25407U 98045B   16155.93584199  .00000191  00000-0  12151-3 0  9994
2 25407  71.0106 116.3027 0005925  54.8457 305.3221 14.15744339922379
ISS (ZARYA)             
1 25544U 98067A   16156.43871417  .00003002  00000-0  51445-4 0  9992
2 25544  51.6428 121.6227 0001613 146.2058   2.2537 15.54743725  3001
SL-8 R/B                
1 25723U 99022C   16155.91773071  .00006361  00000-0  12510-3 0  9992
2 25723  48.4189  15.7958 0010967  13.0911  66.8261 15.48443219947480
CZ-4B R/B               
1 25732U 99025C   16155.93536564  .00000006  00000-0  25151-4 0  9997
2 25732  98.9718 147.4766 0038485  88.0844 301.4868 14.17609579882948
OKEAN-O                 
1 25860U 99039A   16156.04191314  .00000174  00000-0  32634-4 0  9997
2 25860  98.1426 130.7907 0000856  85.7867 274.3440 14.76360281908032
SL-16 R/B               
1 25861U 99039B   16155.88914772  .00000096  00000-0  20504-4 0  9996
2 25861  98.0524 119.9449 0014829 216.3031 195.8041 14.78321517909880
TERRA                   
1 25994U 99068A   16156.17966368  .00000365  00000-0  91181-4 0  9994
2 25994  98.2118 230.6621 0001272 110.8233 249.3160 14.57105261875625
SL-14 R/B               
1 26874U 01032B   16156.21224042  .00020949  00000-0  10977-3 0  9990
2 26874  82.4598 296.0740 0006125 242.6384 117.4260 15.80596056833590
ENVISAT                 
1 27386U 02009A   16156.45891398 -.00000004  00000-0  12439-4 0  9991
2 27386  98.2846 210.3344 0001214  80.6914 279.4413 14.37867559746796
IDEFIX & ARIANE 42P R/B 
1 27422U 02021B   16155.91130539  .00000025  00000-0  25935-4 0  9996
2 27422  98.2303 171.1676 0010965 279.0942  80.9000 14.29243839734531
AQUA                    
1 27424U 02022A   16156.49081301  .00000193  00000-0  52860-4 0  9998
2 27424  98.1988  97.2305 0001099 120.9283 331.4238 14.57117500749278
CZ-4B R/B               
1 27432U 02024C   16156.02986586 -.00000007  00000-0  19880-4 0  9997
2 27432  98.9353 122.5746 0050994  24.2152  17.3078 14.14016706725355
MIDORI II (ADEOS-II)    
1 27597U 02056A   16156.04645446  .00000062  00000-0  42201-4 0  9996
2 27597  98.3207 136.7879 0001714  51.4328 308.7007 14.27214306701483
H-2A R/B                
1 27601U 02056E   16155.84634433  .00000068  00000-0  40315-4 0  9993
2 27601  98.4189 229.7596 0071609 337.4624 130.0781 14.31715347703678
